{
    "links": {
        "self": "http://www.neowsapp.com/rest/v1/neo/3314050?api_key=iIulBulltgU6a56xZRHN4H3l9WmuAYTsLGpBGhQ2"
    },
    "id": "3314050",
    "neo_reference_id": "3314050",
    "name": "(2006 BM55)",
    "designation": "2006 BM55",
    "nasa_jpl_url": "http://ssd.jpl.nasa.gov/sbdb.cgi?sstr=3314050",
    "absolute_magnitude_h": 23.0,
    "estimated_diameter": {
        "kilometers": {
            "estimated_diameter_min": 0.0667659413,
            "estimated_diameter_max": 0.1492931834
        },
        "meters": {
            "estimated_diameter_min": 66.7659413495,
            "estimated_diameter_max": 149.2931834393
        },
        "miles": {
            "estimated_diameter_min": 0.0414864197,
            "estimated_diameter_max": 0.0927664547
        },
        "feet": {
            "estimated_diameter_min": 219.0483710172,
            "estimated_diameter_max": 489.807047955
        }
    },
    "is_potentially_hazardous_asteroid": false,
    "close_approach_data": [
        {
            "close_approach_date": "2006-02-05",
            "close_approach_date_full": "2006-Feb-05 17:08",
            "epoch_date_close_approach": 1139159280000,
            "relative_velocity": {
                "kilometers_per_second": "19.852285637",
                "kilometers_per_hour": "71468.228293277",
                "miles_per_hour": "44407.5777414532"
            },
            "miss_distance": {
                "astronomical": "0.0215385798",
                "lunar": "8.3785075422",
                "kilometers": "3222125.660905026",
                "miles": "2002136.0454043188"
            },
            "orbiting_body": "Earth"
        },
        {
            "close_approach_date": "2006-04-01",
            "close_approach_date_full": "2006-Apr-01 02:02",
            "epoch_date_close_approach": 1143856920000,
            "relative_velocity": {
                "kilometers_per_second": "13.9318664818",
                "kilometers_per_hour": "50154.719334453",
                "miles_per_hour": "31164.1921331216"
            },
            "miss_distance": {
                "astronomical": "0.0520780904",
                "lunar": "20.2583771656",
                "kilometers": "7790771.397507448",
                "miles": "4840960.8680728624"
            },
            "orbiting_body": "Venus"
        }
    ],
    "orbital_data": {
        "orbit_id": "13",
        "orbit_determination_date": "2017-04-06 09:09:14",
        "first_observation_date": "2006-01-27",
        "last_observation_date": "2006-02-04",
        "data_arc_in_days": 8,
        "observations_used": 83,
        "orbit_uncertainty": "8",
        "minimum_orbit_intersection": ".000828237",
        "jupiter_tisserand_invariant": "2.943",
        "epoch_osculation": "2453764.5",
        "eccentricity": ".7453304611611377",
        "semi_major_axis": "2.600732358178291",
        "inclination": "1.979923198753788",
        "ascending_node_longitude": "313.7910864846772",
        "orbital_period": "1531.940573524336",
        "perihelion_distance": ".6623273103005723",
        "perihelion_argument": "258.0217904029896",
        "aphelion_distance": "4.53913740605601",
        "perihelion_time": "2453814.382425570371",
        "mean_anomaly": "348.2778264929555",
        "mean_motion": ".2349960606969204",
        "equinox": "J2000",
        "orbit_class": {
            "orbit_class_type": "APO",
            "orbit_class_description": "Near-Earth asteroid orbits which cross the Earth’s orbit similar to that of 1862 Apollo",
            "orbit_class_range": "a (semi-major axis) > 1.0 AU; q (perihelion) < 1.017 AU"
        }
    },
    "is_sentry_object": false
}